start=new Date('2023-02-26T00:00:00.000Z').valueOf();
sats=[{"DECAY_DATE":null,"TIME_SYSTEM":"UTC","MEAN_ELEMENT_THEORY":"SGP4","MEAN_MOTION_DOT":"0.00001003","MEAN_MOTION":"15.08832723","NORAD_CAT_ID":"49418","SEMIMAJOR_AXIS":"6917.903","ELEMENT_SET_NO":"999","PERIOD":"95.438","MEAN_ANOMALY":"259.8702","REV_AT_EPOCH":"7133","INCLINATION":"53.2155","ECCENTRICITY":"0.00015910","EPHEMERIS_TYPE":"0","RA_OF_ASC_NODE":"163.6461","OBJECT_TYPE":"PAYLOAD","BSTAR":"0.00008109800000","OBJECT_NAME":"STARLINK-3111","ARG_OF_PERICENTER":"100.2469","SITE":"AFETR","MEAN_MOTION_DDOT":"0.0000000000000","APOAPSIS":"540.868","EPOCH":"2023-02-25T13:47:09.182976","COUNTRY_CODE":"US","TLE_LINE1":"1 49418U 21104L   23056.57441184  .00001003  00000-0  81098-4 0  9998","CLASSIFICATION_TYPE":"U","FILE":"3839003","RCS_SIZE":"LARGE","GP_ID":"226911440","LAUNCH_DATE":"2021-11-13","CENTER_NAME":"EARTH","OBJECT_ID":"2021-104L","PERIAPSIS":"538.667","REF_FRAME":"TEME","TLE_LINE2":"2 49418  53.2155 163.6461 0001591 100.2469 259.8702 15.08832723 71330"},{"APOAPSIS":"540.508","OBJECT_NAME":"STARLINK-3120","ARG_OF_PERICENTER":"91.4617","SITE":"AFETR","MEAN_MOTION_DDOT":"0.0000000000000","EPHEMERIS_TYPE":"0","ECCENTRICITY":"0.00011450","RA_OF_ASC_NODE":"162.8037","OBJECT_TYPE":"PAYLOAD","BSTAR":"0.00213770000000","REV_AT_EPOCH":"7136","INCLINATION":"53.2126","PERIOD":"95.437","MEAN_ANOMALY":"268.6506","MEAN_MOTION_DOT":"0.00033906","MEAN_MOTION":"15.08849520","NORAD_CAT_ID":"49419","SEMIMAJOR_AXIS":"6917.851","ELEMENT_SET_NO":"999","TIME_SYSTEM":"UTC","DECAY_DATE":null,"MEAN_ELEMENT_THEORY":"SGP4","TLE_LINE2":"2 49419  53.2126 162.8037 0001145  91.4617 268.6506 15.08849520 71366","PERIAPSIS":"538.924","REF_FRAME":"TEME","CENTER_NAME":"EARTH","OBJECT_ID":"2021-104M","RCS_SIZE":"LARGE","GP_ID":"226911690","LAUNCH_DATE":"2021-11-13","CLASSIFICATION_TYPE":"U","FILE":"3839003","TLE_LINE1":"1 49419U 21104M   23056.76209217  .00033906  00000-0  21377-2 0  9998","EPOCH":"2023-02-25T18:17:24.763488","COUNTRY_CODE":"US"},{"EPOCH":"2023-02-25T16:52:37.229088","COUNTRY_CODE":"US","TLE_LINE1":"1 49420U 21104N   23056.70320867  .00022455  00000-0  14242-2 0  9999","CLASSIFICATION_TYPE":"U","FILE":"3839003","RCS_SIZE":"LARGE","GP_ID":"226912439","LAUNCH_DATE":"2021-11-13","CENTER_NAME":"EARTH","OBJECT_ID":"2021-104N","PERIAPSIS":"538.801","REF_FRAME":"TEME","TLE_LINE2":"2 49420  53.2144 163.0677 0001338 112.9528 247.1606 15.08845997 71351","TIME_SYSTEM":"UTC","DECAY_DATE":null,"MEAN_ELEMENT_THEORY":"SGP4","MEAN_MOTION_DOT":"0.00022455","MEAN_MOTION":"15.08845997","NORAD_CAT_ID":"49420","SEMIMAJOR_AXIS":"6917.862","ELEMENT_SET_NO":"999","PERIOD":"95.437","MEAN_ANOMALY":"247.1606","REV_AT_EPOCH":"7135","INCLINATION":"53.2144","EPHEMERIS_TYPE":"0","ECCENTRICITY":"0.00013380","OBJECT_TYPE":"PAYLOAD","RA_OF_ASC_NODE":"163.0677","BSTAR":"0.00142420000000","OBJECT_NAME":"STARLINK-3110","ARG_OF_PERICENTER":"112.9528","MEAN_MOTION_DDOT":"0.0000000000000","SITE":"AFETR","APOAPSIS":"540.653"},{"MEAN_MOTION_DOT":"0.00016675","MEAN_MOTION":"15.08846744","SEMIMAJOR_AXIS":"6917.860","NORAD_CAT_ID":"49421","ELEMENT_SET_NO":"999","TIME_SYSTEM":"UTC","DECAY_DATE":null,"MEAN_ELEMENT_THEORY":"SGP4","REV_AT_EPOCH":"7137","INCLINATION":"53.2146","PERIOD":"95.437","MEAN_ANOMALY":"271.0450","OBJECT_NAME":"STARLINK-3112","ARG_OF_PERICENTER":"89.0722","SITE":"AFETR","MEAN_MOTION_DDOT":"0.0000000000000","EPHEMERIS_TYPE":"0","ECCENTRICITY":"0.00015640","RA_OF_ASC_NODE":"162.5409","OBJECT_TYPE":"PAYLOAD","BSTAR":"0.00106310000000","APOAPSIS":"540.807","TLE_LINE1":"1 49421U 21104P   23056.82193293  .00016675  00000-0  10631-2 0  9999","EPOCH":"2023-02-25T19:43:35.005152","COUNTRY_CODE":"US","FILE":"3839003","CLASSIFICATION_TYPE":"U","CENTER_NAME":"EARTH","OBJECT_ID":"2021-104P","RCS_SIZE":"LARGE","GP_ID":"226913187","LAUNCH_DATE":"2021-11-13","TLE_LINE2":"2 49421  53.2146 162.5409 0001564  89.0722 271.0450 15.08846744 71378","PERIAPSIS":"538.643","REF_FRAME":"TEME"},{"SITE":"AFETR","MEAN_MOTION_DDOT":"0.0000000000000","ARG_OF_PERICENTER":"92.6624","OBJECT_NAME":"STARLINK-3161","BSTAR":"-0.00001523800000","RA_OF_ASC_NODE":"163.6794","OBJECT_TYPE":"PAYLOAD","ECCENTRICITY":"0.00015900","EPHEMERIS_TYPE":"0","APOAPSIS":"540.873","ELEMENT_SET_NO":"999","SEMIMAJOR_AXIS":"6917.908","NORAD_CAT_ID":"49422","MEAN_MOTION":"15.08830836","MEAN_MOTION_DOT":"-0.00000530","MEAN_ELEMENT_THEORY":"SGP4","DECAY_DATE":null,"TIME_SYSTEM":"UTC","INCLINATION":"53.2154","REV_AT_EPOCH":"7133","MEAN_ANOMALY":"267.4550","PERIOD":"95.438","OBJECT_ID":"2021-104Q","CENTER_NAME":"EARTH","LAUNCH_DATE":"2021-11-13","GP_ID":"226911941","RCS_SIZE":"LARGE","TLE_LINE2":"2 49422  53.2154 163.6794 0001590  92.6624 267.4550 15.08830836 71338","REF_FRAME":"TEME","PERIAPSIS":"538.673","TLE_LINE1":"1 49422U 21104Q   23056.56705428 -.00000530  00000-0 -15238-4 0  9995","COUNTRY_CODE":"US","EPOCH":"2023-02-25T13:36:33.489792","FILE":"3839003","CLASSIFICATION_TYPE":"U"},{"OBJECT_NAME":"STARLINK-3149","ARG_OF_PERICENTER":"100.1636","MEAN_MOTION_DDOT":"0.0000000000000","SITE":"AFETR","EPHEMERIS_TYPE":"0","ECCENTRICITY":"0.00014430","OBJECT_TYPE":"PAYLOAD","RA_OF_ASC_NODE":"163.4655","BSTAR":"0.00016579000000","APOAPSIS":"540.759","MEAN_MOTION_DOT":"0.00002351","MEAN_MOTION":"15.08835087","SEMIMAJOR_AXIS":"6917.895","NORAD_CAT_ID":"49423","ELEMENT_SET_NO":"999","TIME_SYSTEM":"UTC","DECAY_DATE":null,"MEAN_ELEMENT_THEORY":"SGP4","REV_AT_EPOCH":"7134","INCLINATION":"53.2135","PERIOD":"95.438","MEAN_ANOMALY":"259.9519","CENTER_NAME":"EARTH","OBJECT_ID":"2021-104R","RCS_SIZE":"LARGE","GP_ID":"226912191","LAUNCH_DATE":"2021-11-13","TLE_LINE2":"2 49423  53.2135 163.4655 0001443 100.1636 259.9519 15.08835087 71342","PERIAPSIS":"538.762","REF_FRAME":"TEME","TLE_LINE1":"1 49423U 21104R   23056.61489369  .00002351  00000-0  16579-3 0  9994","EPOCH":"2023-02-25T14:45:26.814816","COUNTRY_CODE":"US","FILE":"3839003","CLASSIFICATION_TYPE":"U"},{"OBJECT_ID":"2021-104S","CENTER_NAME":"EARTH","GP_ID":"226912940","LAUNCH_DATE":"2021-11-13","RCS_SIZE":"LARGE","TLE_LINE2":"2 49424  53.2172 163.1163 0001585  84.8643 275.2530 15.08829666 71359","PERIAPSIS":"538.680","REF_FRAME":"TEME","TLE_LINE1":"1 49424U 21104S   23056.69217845 -.00001264  00000-0 -61346-4 0  9998","EPOCH":"2023-02-25T16:36:44.218080","COUNTRY_CODE":"US","CLASSIFICATION_TYPE":"U","FILE":"3839003","ARG_OF_PERICENTER":"84.8643","MEAN_MOTION_DDOT":"0.0000000000000","SITE":"AFETR","OBJECT_NAME":"STARLINK-3135","RA_OF_ASC_NODE":"163.1163","OBJECT_TYPE":"PAYLOAD","BSTAR":"-0.00006134600000","ECCENTRICITY":"0.00015850","EPHEMERIS_TYPE":"0","APOAPSIS":"540.873","NORAD_CAT_ID":"49424","SEMIMAJOR_AXIS":"6917.912","ELEMENT_SET_NO":"999","MEAN_MOTION_DOT":"-0.00001264","MEAN_MOTION":"15.08829666","MEAN_ELEMENT_THEORY":"SGP4","TIME_SYSTEM":"UTC","DECAY_DATE":null,"INCLINATION":"53.2172","REV_AT_EPOCH":"7135","MEAN_ANOMALY":"275.2530","PERIOD":"95.438"},{"CLASSIFICATION_TYPE":"U","FILE":"3839003","COUNTRY_CODE":"US","EPOCH":"2023-02-25T14:40:08.791968","TLE_LINE1":"1 49425U 21104T   23056.61121287  .00000636  00000-0  58030-4 0  9991","REF_FRAME":"TEME","PERIAPSIS":"538.842","TLE_LINE2":"2 49425  53.2172 163.4799 0001334 102.4691 257.6451 15.08833663 71358","RCS_SIZE":"LARGE","LAUNCH_DATE":"2021-11-13","GP_ID":"226912687","CENTER_NAME":"EARTH","OBJECT_ID":"2021-104T","PERIOD":"95.438","MEAN_ANOMALY":"257.6451","REV_AT_EPOCH":"7135","INCLINATION":"53.2172","DECAY_DATE":null,"TIME_SYSTEM":"UTC","MEAN_ELEMENT_THEORY":"SGP4","MEAN_MOTION":"15.08833663","MEAN_MOTION_DOT":"0.00000636","ELEMENT_SET_NO":"999","SEMIMAJOR_AXIS":"6917.900","NORAD_CAT_ID":"49425","APOAPSIS":"540.688","ECCENTRICITY":"0.00013340","EPHEMERIS_TYPE":"0","BSTAR":"0.00005803000000","OBJECT_TYPE":"PAYLOAD","RA_OF_ASC_NODE":"163.4799","OBJECT_NAME":"STARLINK-3139","SITE":"AFETR","MEAN_MOTION_DDOT":"0.0000000000000","ARG_OF_PERICENTER":"102.4691"},{"LAUNCH_DATE":"2021-11-13","GP_ID":"226911441","RCS_SIZE":"LARGE","OBJECT_ID":"2021-104U","CENTER_NAME":"EARTH","REF_FRAME":"TEME","PERIAPSIS":"538.893","TLE_LINE2":"2 49426  53.2155 163.4463 0001272  87.2913 272.8224 15.08831081 71344","COUNTRY_CODE":"US","EPOCH":"2023-02-25T14:50:44.913696","TLE_LINE1":"1 49426U 21104U   23056.61857539  .00000992  00000-0  80454-4 0  9998","CLASSIFICATION_TYPE":"U","FILE":"3839003","BSTAR":"0.00008045400000","OBJECT_TYPE":"PAYLOAD","RA_OF_ASC_NODE":"163.4463","ECCENTRICITY":"0.00012720","EPHEMERIS_TYPE":"0","SITE":"AFETR","MEAN_MOTION_DDOT":"0.0000000000000","ARG_OF_PERICENTER":"87.2913","OBJECT_NAME":"STARLINK-3114","APOAPSIS":"540.653","MEAN_ELEMENT_THEORY":"SGP4","DECAY_DATE":null,"TIME_SYSTEM":"UTC","ELEMENT_SET_NO":"999","NORAD_CAT_ID":"49426","SEMIMAJOR_AXIS":"6917.908","MEAN_MOTION":"15.08831081","MEAN_MOTION_DOT":"0.00000992","MEAN_ANOMALY":"272.8224","PERIOD":"95.438","INCLINATION":"53.2155","REV_AT_EPOCH":"7134"},{"CLASSIFICATION_TYPE":"U","FILE":"3839003","TLE_LINE1":"1 49427U 21104V   23056.60753150  .00002230  00000-0  15820-3 0  9993","EPOCH":"2023-02-25T14:34:50.721600","COUNTRY_CODE":"US","TLE_LINE2":"2 49427  53.2142 163.4953 0001011  94.8617 265.2490 15.08831386 71351","PERIAPSIS":"539.072","REF_FRAME":"TEME","OBJECT_ID":"2021-104V","CENTER_NAME":"EARTH","GP_ID":"226912192","LAUNCH_DATE":"2021-11-13","RCS_SIZE":"LARGE","INCLINATION":"53.2142","REV_AT_EPOCH":"7135","MEAN_ANOMALY":"265.2490","PERIOD":"95.438","NORAD_CAT_ID":"49427","SEMIMAJOR_AXIS":"6917.907","ELEMENT_SET_NO":"999","MEAN_MOTION_DOT":"0.00002230","MEAN_MOTION":"15.08831386","MEAN_ELEMENT_THEORY":"SGP4","DECAY_DATE":null,"TIME_SYSTEM":"UTC","APOAPSIS":"540.471","ARG_OF_PERICENTER":"94.8617","MEAN_MOTION_DDOT":"0.0000000000000","SITE":"AFETR","OBJECT_NAME":"STARLINK-3131","OBJECT_TYPE":"PAYLOAD","RA_OF_ASC_NODE":"163.4953","BSTAR":"0.00015820000000","ECCENTRICITY":"0.00010110","EPHEMERIS_TYPE":"0"}];
